GENMAT-1                
1 58276U 23174W   26204.17039671  .00009582  00000+0  28229-3 0  9992
2 58276  97.3662 281.9651 0007582  65.1533 295.0499 15.35223391150491
