[
  {
    "OBJECT_NAME": "GENMAT-1",
    "OBJECT_ID": "2023-174W",
    "EPOCH": "2026-07-23T04:05:22.274880",
    "MEAN_MOTION": 15.35223391,
    "ECCENTRICITY": 0.0007583,
    "INCLINATION": 97.3662,
    "RA_OF_ASC_NODE": 281.9651,
    "ARG_OF_PERICENTER": 65.1533,
    "MEAN_ANOMALY": 295.0499,
    "EPHEMERIS_TYPE": 0,
    "CLASSIFICATION_TYPE": "U",
    "NORAD_CAT_ID": 58276,
    "ELEMENT_SET_NO": 999,
    "REV_AT_EPOCH": 15049,
    "BSTAR": 0.00028229,
    "MEAN_MOTION_DOT": 0.00009582,
    "MEAN_MOTION_DDOT": 0
  }
]
